{"type": "FeatureCollection", "features": [ {"type": "Feature", "properties": {"norad_id": 66795, "name": "STARLINK-36047", "group": "last-30-days", "lat": -42.965860461070534, "lon": 147.5176662211036, "alt_km": 328.29209505636936, "timestamp": "2025-12-14T20:40:30.516395+00:00", "meta": {"OBJECT_NAME": "STARLINK-36047", "OBJECT_ID": "2025-278E", "EPOCH": "2025-12-14T06:00:02.999808", "MEAN_MOTION": 15.83066927, "ECCENTRICITY": 0.00018819, "INCLINATION": 42.9973, "RA_OF_ASC_NODE": 242.8174, "ARG_OF_PERICENTER": 271.5296, "MEAN_ANOMALY": 110.3058, "EPHEMERIS_TYPE": 0, "CLASSIFICATION_TYPE": "U", "NORAD_CAT_ID": 66795, "ELEMENT_SET_NO": 999, "REV_AT_EPOCH": 310, "BSTAR": -0.0062777648, "MEAN_MOTION_DOT": -0.01232106, "MEAN_MOTION_DDOT": 0}, "tle": {"line1": "1 66795U 25278E   25348.25003472 -.01232106  00000+0 -62778-2 0  9990", "line2": "2 66795  42.9973 242.8174 0001881 271.5296 110.3058 15.83066927  3106"}}, "geometry": {"type": "Point", "coordinates": [147.5176662211036, -42.965860461070534]}}, {"type": "Feature", "properties": {"norad_id": 66796, "name": "STARLINK-35964", "group": "last-30-days", "lat": -27.617781420993254, "lon": -156.13484226834848, "alt_km": 297.86666130195044, "timestamp": "2025-12-14T20:40:30.516405+00:00", "meta": {"OBJECT_NAME": "STARLINK-35964", "OBJECT_ID": "2025-278F", "EPOCH": "2025-12-14T06:00:02.999808", "MEAN_MOTION": 15.94725878, "ECCENTRICITY": 0.00018116, "INCLINATION": 42.9942, "RA_OF_ASC_NODE": 241.8418, "ARG_OF_PERICENTER": 275.6166, "MEAN_ANOMALY": 130.0142, "EPHEMERIS_TYPE": 0, "CLASSIFICATION_TYPE": "U", "NORAD_CAT_ID": 66796, "ELEMENT_SET_NO": 999, "REV_AT_EPOCH": 304, "BSTAR": -0.0059120362, "MEAN_MOTION_DOT": -0.02328868, "MEAN_MOTION_DDOT": 0.001482682}, "tle": {"line1": "1 66796U 25278F   25348.25003472 -.02328868  14827-2 -59120-2 0  9995", "line2": "2 66796  42.9942 241.8418 0001811 275.6166 130.0142 15.94725878  3042"}}, "geometry": {"type": "Point", "coordinates": [-156.13484226834848, -27.617781420993254]}}, {"type": "Feature", "properties": {"norad_id": 66797, "name": "STARLINK-36099", "group": "last-30-days", "lat": -42.843552810283924, "lon": 154.57112509916294, "alt_km": 328.5661397019421, "timestamp": "2025-12-14T20:40:30.516418+00:00", "meta": {"OBJECT_NAME": "STARLINK-36099", "OBJECT_ID": "2025-278G", "EPOCH": "2025-12-14T06:00:02.999808", "MEAN_MOTION": 15.82987887, "ECCENTRICITY": 0.00019257, "INCLINATION": 42.9972, "RA_OF_ASC_NODE": 242.8037, "ARG_OF_PERICENTER": 273.955, "MEAN_ANOMALY": 113.2769, "EPHEMERIS_TYPE": 0, "CLASSIFICATION_TYPE": "U", "NORAD_CAT_ID": 66797, "ELEMENT_SET_NO": 999, "REV_AT_EPOCH": 326, "BSTAR": -0.0064377116, "MEAN_MOTION_DOT": -0.01255676, "MEAN_MOTION_DDOT": 0}, "tle": {"line1": "1 66797U 25278G   25348.25003472 -.01255676  00000+0 -64377-2 0  9996", "line2": "2 66797  42.9972 242.8037 0001925 273.9550 113.2769 15.82987887  3267"}}, "geometry": {"type": "Point", "coordinates": [154.57112509916294, -42.843552810283924]}}, {"type": "Feature", "properties": {"norad_id": 66798, "name": "STARLINK-36041", "group": "last-30-days", "lat": -42.6687282994831, "lon": 157.43912549021172, "alt_km": 328.58834553676024, "timestamp": "2025-12-14T20:40:30.516428+00:00", "meta": {"OBJECT_NAME": "STARLINK-36041", "OBJECT_ID": "2025-278H", "EPOCH": "2025-12-14T06:00:02.999808", "MEAN_MOTION": 15.82985857, "ECCENTRICITY": 0.00019274, "INCLINATION": 42.9971, "RA_OF_ASC_NODE": 242.7983, "ARG_OF_PERICENTER": 275.9987, "MEAN_ANOMALY": 113.3683, "EPHEMERIS_TYPE": 0, "CLASSIFICATION_TYPE": "U", "NORAD_CAT_ID": 66798, "ELEMENT_SET_NO": 999, "REV_AT_EPOCH": 304, "BSTAR": -0.0064744785, "MEAN_MOTION_DOT": -0.01261904, "MEAN_MOTION_DDOT": 0}, "tle": {"line1": "1 66798U 25278H   25348.25003472 -.01261904  00000+0 -64745-2 0  9997", "line2": "2 66798  42.9971 242.7983 0001927 275.9987 113.3683 15.82985857  3041"}}, "geometry": {"type": "Point", "coordinates": [157.43912549021172, -42.6687282994831]}}, {"type": "Feature", "properties": {"norad_id": 66799, "name": "STARLINK-36044", "group": "last-30-days", "lat": -42.399889545878864, "lon": 160.51300796506882, "alt_km": 328.61376423378806, "timestamp": "2025-12-14T20:40:30.516437+00:00", "meta": {"OBJECT_NAME": "STARLINK-36044", "OBJECT_ID": "2025-278J", "EPOCH": "2025-12-14T06:00:02.999808", "MEAN_MOTION": 15.82963927, "ECCENTRICITY": 0.00019672, "INCLINATION": 42.9969, "RA_OF_ASC_NODE": 242.7925, "ARG_OF_PERICENTER": 275.6306, "MEAN_ANOMALY": 116.0746, "EPHEMERIS_TYPE": 0, "CLASSIFICATION_TYPE": "U", "NORAD_CAT_ID": 66799, "ELEMENT_SET_NO": 999, "REV_AT_EPOCH": 320, "BSTAR": -0.0064896767, "MEAN_MOTION_DOT": -0.01263376, "MEAN_MOTION_DDOT": 0}, "tle": {"line1": "1 66799U 25278J   25348.25003472 -.01263376  00000+0 -64897-2 0  9991", "line2": "2 66799  42.9969 242.7925 0001967 275.6306 116.0746 15.82963927  3203"}}, "geometry": {"type": "Point", "coordinates": [160.51300796506882, -42.399889545878864]}}, {"type": "Feature", "properties": {"norad_id": 66800, "name": "STARLINK-35996", "group": "last-30-days", "lat": -41.624008340527375, "lon": 166.53490181080298, "alt_km": 328.82066482166556, "timestamp": "2025-12-14T20:40:30.516447+00:00", "meta": {"OBJECT_NAME": "STARLINK-35996", "OBJECT_ID": "2025-278K", "EPOCH": "2025-12-14T06:00:02.999808", "MEAN_MOTION": 15.82931925, "ECCENTRICITY": 0.0001856, "INCLINATION": 42.997, "RA_OF_ASC_NODE": 242.7804, "ARG_OF_PERICENTER": 273.5207, "MEAN_ANOMALY": 122.8347, "EPHEMERIS_TYPE": 0, "CLASSIFICATION_TYPE": "U", "NORAD_CAT_ID": 66800, "ELEMENT_SET_NO": 999, "REV_AT_EPOCH": 299, "BSTAR": -0.006594931, "MEAN_MOTION_DOT": -0.01279634, "MEAN_MOTION_DDOT": 0}, "tle": {"line1": "1 66800U 25278K   25348.25003472 -.01279634  00000+0 -65949-2 0  9997", "line2": "2 66800  42.9970 242.7804 0001856 273.5207 122.8347 15.82931925  2998"}}, "geometry": {"type": "Point", "coordinates": [166.53490181080298, -41.624008340527375]}}, {"type": "Feature", "properties": {"norad_id": 66801, "name": "STARLINK-36080", "group": "last-30-days", "lat": -38.40678970136732, "lon": -179.3040642499313, "alt_km": 329.0106417107427, "timestamp": "2025-12-14T20:40:30.516457+00:00", "meta": {"OBJECT_NAME": "STARLINK-36080", "OBJECT_ID": "2025-278L", "EPOCH": "2025-12-14T06:00:02.999808", "MEAN_MOTION": 15.82850058, "ECCENTRICITY": 0.00019314, "INCLINATION": 42.9971, "RA_OF_ASC_NODE": 242.7506, "ARG_OF_PERICENTER": 280.3023, "MEAN_ANOMALY": 127.6263, "EPHEMERIS_TYPE": 0, "CLASSIFICATION_TYPE": "U", "NORAD_CAT_ID": 66801, "ELEMENT_SET_NO": 999, "REV_AT_EPOCH": 320, "BSTAR": -0.006828343, "MEAN_MOTION_DOT": -0.01314895, "MEAN_MOTION_DDOT": 0}, "tle": {"line1": "1 66801U 25278L   25348.25003472 -.01314895  00000+0 -68283-2 0  9991", "line2": "2 66801  42.9971 242.7506 0001931 280.3023 127.6263 15.82850058  3207"}}, "geometry": {"type": "Point", "coordinates": [-179.3040642499313, -38.40678970136732]}}, {"type": "Feature", "properties": {"norad_id": 66802, "name": "STARLINK-35604", "group": "last-30-days", "lat": -42.07340526681921, "lon": 163.37147654803948, "alt_km": 328.6716347989495, "timestamp": "2025-12-14T20:40:30.516467+00:00", "meta": {"OBJECT_NAME": "STARLINK-35604", "OBJECT_ID": "2025-278M", "EPOCH": "2025-12-14T06:00:02.999808", "MEAN_MOTION": 15.82961047, "ECCENTRICITY": 0.00019121, "INCLINATION": 42.997, "RA_OF_ASC_NODE": 242.7868, "ARG_OF_PERICENTER": 278.8346, "MEAN_ANOMALY": 115.0361, "EPHEMERIS_TYPE": 0, "CLASSIFICATION_TYPE": "U", "NORAD_CAT_ID": 66802, "ELEMENT_SET_NO": 999, "REV_AT_EPOCH": 320, "BSTAR": -0.0065247264, "MEAN_MOTION_DOT": -0.01269207, "MEAN_MOTION_DDOT": 0}, "tle": {"line1": "1 66802U 25278M   25348.25003472 -.01269207  00000+0 -65247-2 0  9995", "line2": "2 66802  42.9970 242.7868 0001912 278.8346 115.0361 15.82961047  3208"}}, "geometry": {"type": "Point", "coordinates": [163.37147654803948, -42.07340526681921]}}, {"type": "Feature", "properties": {"norad_id": 66803, "name": "STARLINK-35565", "group": "last-30-days", "lat": -41.150806907312706, "lon": 169.31646659272707, "alt_km": 328.7945677016587, "timestamp": "2025-12-14T20:40:30.516477+00:00", "meta": {"OBJECT_NAME": "STARLINK-35565", "OBJECT_ID": "2025-278N", "EPOCH": "2025-12-14T06:00:02.999808", "MEAN_MOTION": 15.82923737, "ECCENTRICITY": 0.00019046, "INCLINATION": 42.9971, "RA_OF_ASC_NODE": 242.7751, "ARG_OF_PERICENTER": 277.597, "MEAN_ANOMALY": 120.9283, "EPHEMERIS_TYPE": 0, "CLASSIFICATION_TYPE": "U", "NORAD_CAT_ID": 66803, "ELEMENT_SET_NO": 999, "REV_AT_EPOCH": 328, "BSTAR": -0.0066106286, "MEAN_MOTION_DOT": -0.01281907, "MEAN_MOTION_DDOT": 0}, "tle": {"line1": "1 66803U 25278N   25348.25003472 -.01281907  00000+0 -66106-2 0  9992", "line2": "2 66803  42.9971 242.7751 0001904 277.5970 120.9283 15.82923737  3281"}}, "geometry": {"type": "Point", "coordinates": [169.31646659272707, -41.150806907312706]}}, {"type": "Feature", "properties": {"norad_id": 66804, "name": "STARLINK-36038", "group": "last-30-days", "lat": -40.52692908625817, "lon": 172.45347645118656, "alt_km": 328.90181194508204, "timestamp": "2025-12-14T20:40:30.516487+00:00", "meta": {"OBJECT_NAME": "STARLINK-36038", "OBJECT_ID": "2025-278P", "EPOCH": "2025-12-14T06:00:02.999808", "MEAN_MOTION": 15.82890614, "ECCENTRICITY": 0.00019032, "INCLINATION": 42.9973, "RA_OF_ASC_NODE": 242.7688, "ARG_OF_PERICENTER": 275.3077, "MEAN_ANOMALY": 125.7612, "EPHEMERIS_TYPE": 0, "CLASSIFICATION_TYPE": "U", "NORAD_CAT_ID": 66804, "ELEMENT_SET_NO": 999, "REV_AT_EPOCH": 320, "BSTAR": -0.0066592598, "MEAN_MOTION_DOT": -0.01288411, "MEAN_MOTION_DDOT": 0}, "tle": {"line1": "1 66804U 25278P   25348.25003472 -.01288411  00000+0 -66593-2 0  9990", "line2": "2 66804  42.9973 242.7688 0001903 275.3077 125.7612 15.82890614  3204"}}, "geometry": {"type": "Point", "coordinates": [172.45347645118656, -40.52692908625817]}}]}